NORAD_CAT_ID,OBJECT_NAME,OBJECT_TYPE,EPOCH,MEAN_MOTION,ECCENTRICITY,INCLINATION,RA_OF_ASC_NODE,ARG_OF_PERICENTER,MEAN_ANOMALY,BSTAR,MEAN_MOTION_DOT,MEAN_MOTION_DDOT,TLE_LINE0,TLE_LINE1,TLE_LINE2,SEMIMAJOR_AXIS,PERIOD,APOGEE,PERIGEE,DECAYED
53578.0,STARLINK-4556,PAYLOAD,2024-07-21 06:51:35,15.08833763,0.0001436,53.2146,211.1159,90.159,269.9566,4.907e-05,4.93e-06,0.0,0 STARLINK-4556,1 53578U 22101BD  24203.28582233  .00000493  00000-0  49070-4 0  9998,2 53578  53.2146 211.1159 0001436  90.1590 269.9566 15.08833763106418,6917.899,95.438,540.758,538.771,0.0
53578.0,STARLINK-4556,PAYLOAD,2024-07-22 05:06:58,15.08845326,0.0001361,53.215,206.952,93.0559,267.0589,5.0557e-05,5.17e-06,0.0,0 STARLINK-4556,1 53578U 22101BD  24204.21317494  .00000517  00000-0  50557-4 0  9996,2 53578  53.2150 206.9520 0001361  93.0559 267.0589 15.08845326106558,6917.864,95.437,540.671,538.788,0.0
53578.0,STARLINK-4556,PAYLOAD,2024-07-22 09:53:07,15.08846685,0.0001357,53.215,206.0598,93.3966,266.7181,5.7622e-05,6.29e-06,0.0,0 STARLINK-4556,1 53578U 22101BD  24204.41189317  .00000629  00000-0  57622-4 0  9993,2 53578  53.2150 206.0598 0001357  93.3966 266.7181 15.08846685106580,6917.86,95.437,540.664,538.786,0.0
53578.0,STARLINK-4556,PAYLOAD,2024-07-23 03:22:22,15.08839718,0.0001286,53.2146,202.7882,93.3801,266.7339,0.00011634,1.564e-05,0.0,0 STARLINK-4556,1 53578U 22101BD  24205.14053551  .00001564  00000-0  11634-3 0  9995,2 53578  53.2146 202.7882 0001286  93.3801 266.7339 15.08839718106699,6917.881,95.438,540.636,538.857,0.0
53578.0,STARLINK-4556,PAYLOAD,2024-07-24 04:48:33,15.08834127,0.0001405,53.2155,198.0306,98.3292,261.786,-3.9288e-05,-9.13e-06,0.0,0 STARLINK-4556,1 53578U 22101BD  24206.20038491 -.00000913  00000-0 -39288-4 0  9994,2 53578  53.2155 198.0306 0001405  98.3292 261.7860 15.08834127106850,6917.898,95.438,540.735,538.791,0.0
53578.0,STARLINK-4556,PAYLOAD,2024-07-24 06:23:56,15.0883359,0.0001368,53.2154,197.7332,96.5565,263.5583,-4.661e-05,-1.029e-05,0.0,0 STARLINK-4556,1 53578U 22101BD  24206.26662560 -.00001029  00000-0 -46610-4 0  9996,2 53578  53.2154 197.7332 0001368  96.5565 263.5583 15.08833590106861,6917.9,95.438,540.711,538.819,0.0
53578.0,STARLINK-4556,PAYLOAD,2024-07-25 04:39:19,15.08842679,0.000136,53.2157,193.5716,94.8586,265.2561,5.7821e-05,6.32e-06,0.0,0 STARLINK-4556,1 53578U 22101BD  24207.19397816  .00000632  00000-0  57821-4 0  9991,2 53578  53.2157 193.5716 0001360  94.8586 265.2561 15.08842679107000,6917.872,95.437,540.678,538.796,0.0
53578.0,STARLINK-4556,PAYLOAD,2024-07-25 22:08:34,15.08833921,0.0001321,53.2156,190.3015,80.788,279.3262,8.9993e-05,1.144e-05,0.0,0 STARLINK-4556,1 53578U 22101BD  24207.92262356  .00001144  00000-0  89993-4 0  9996,2 53578  53.2156 190.3015 0001321  80.7880 279.3262 15.08833921107110,6917.899,95.438,540.678,538.85,0.0
53578.0,STARLINK-4556,PAYLOAD,2024-07-26 04:30:07,15.08834745,0.0001316,53.2156,189.1111,81.772,278.3422,8.772e-05,1.108e-05,0.0,0 STARLINK-4556,1 53578U 22101BD  24208.18758435  .00001108  00000-0  87720-4 0  9999,2 53578  53.2156 189.1111 0001316  81.7720 278.3422 15.08834745107157,6917.896,95.438,540.672,538.851,0.0
53578.0,STARLINK-4556,PAYLOAD,2024-07-26 07:40:53,15.08837731,0.0001396,53.216,188.5167,90.3345,269.7807,0.00011554,1.551e-05,0.0,0 STARLINK-4556,1 53578U 22101BD  24208.32006182  .00001551  00000-0  11554-3 0  9993,2 53578  53.2160 188.5167 0001396  90.3345 269.7807 15.08837731107174,6917.887,95.438,540.718,538.787,0.0
53578.0,STARLINK-4556,PAYLOAD,2024-07-27 05:56:17,15.0884179,0.0001389,53.2157,184.3537,92.6237,267.4915,1.8588e-05,8e-08,0.0,0 STARLINK-4556,1 53578U 22101BD  24209.24742211  .00000008  00000-0  18588-4 0  9996,2 53578  53.2157 184.3537 0001389  92.6237 267.4915 15.08841790107313,6917.875,95.437,540.701,538.779,0.0
53578.0,STARLINK-4556,PAYLOAD,2024-07-27 21:50:08,15.08839178,0.0001487,53.2163,181.3796,82.9019,277.2143,5.1417e-05,5.3e-06,0.0,0 STARLINK-4556,1 53578U 22101BD  24209.90982306  .00000530  00000-0  51417-4 0  9998,2 53578  53.2163 181.3796 0001487  82.9019 277.2143 15.08839178107413,6917.883,95.438,540.777,538.719,0.0
53578.0,STARLINK-4556,PAYLOAD,2024-07-28 04:11:41,15.08832641,0.0001445,53.2156,180.1904,87.6904,272.4253,7.6687e-07,-2.76e-06,0.0,0 STARLINK-4556,1 53578U 22101BD  24210.17478972 -.00000276  00000-0  76687-6 0  9994,2 53578  53.2156 180.1904 0001445  87.6904 272.4253 15.08832641107453,6917.903,95.438,540.768,538.768,0.0
53578.0,STARLINK-4556,PAYLOAD,2024-07-28 21:40:56,15.08839585,0.0001348,53.2158,176.9191,95.2709,264.8437,-3.3498e-06,-3.41e-06,0.0,0 STARLINK-4556,1 53578U 22101BD  24210.90342675 -.00000341  00000-0 -33498-5 0  9991,2 53578  53.2158 176.9191 0001348  95.2709 264.8437 15.08839585107561,6917.882,95.438,540.679,538.814,0.0
53578.0,STARLINK-4556,PAYLOAD,2024-07-29 04:02:28,15.08842554,0.0001426,53.2161,175.7304,83.8803,276.2351,4.8278e-05,4.81e-06,0.0,0 STARLINK-4556,1 53578U 22101BD  24211.16838370  .00000481  00000-0  48278-4 0  9996,2 53578  53.2161 175.7304 0001426  83.8803 276.2351 15.08842554107600,6917.873,95.437,540.724,538.751,0.0
53578.0,STARLINK-4556,PAYLOAD,2024-07-29 21:31:43,15.0882418,0.0001585,53.217,172.4612,83.2135,276.9037,0.0002668,3.959e-05,0.0,0 STARLINK-4556,1 53578U 22101BD  24211.89702929  .00003959  00000-0  26680-3 0  9991,2 53578  53.2170 172.4612 0001585  83.2135 276.9037 15.08824180107719,6917.929,95.439,540.89,538.697,0.0
53578.0,STARLINK-4556,PAYLOAD,2024-07-30 03:53:15,15.08838103,0.0001286,53.2166,171.2701,90.773,269.3409,0.00011264,1.505e-05,0.0,0 STARLINK-4556,1 53578U 22101BD  24212.16198435  .00001505  00000-0  11264-3 0  9990,2 53578  53.2166 171.2701 0001286  90.7730 269.3409 15.08838103107755,6917.886,95.438,540.641,538.862,0.0
53578.0,STARLINK-4556,PAYLOAD,2024-07-31 03:44:01,15.08864803,0.0001357,53.2152,166.8109,82.8203,277.2943,-0.00022477,-3.866e-05,0.0,0 STARLINK-4556,1 53578U 22101BD  24213.15557775 -.00003866  00000-0 -22477-3 0  9998,2 53578  53.2152 166.8109 0001357  82.8203 277.2943 15.08864803107902,6917.805,95.436,540.608,538.731,0.0
53578.0,STARLINK-4556,PAYLOAD,2024-07-31 21:13:17,15.08833029,0.0001459,53.2164,163.5403,88.6108,271.5051,-1.1022e-05,-4.63e-06,0.0,0 STARLINK-4556,1 53578U 22101BD  24213.88423238 -.00000463  00000-0 -11022-4 0  9999,2 53578  53.2164 163.5403 0001459  88.6108 271.5051 15.08833029108013,6917.902,95.438,540.776,538.757,0.0
53578.0,STARLINK-4556,PAYLOAD,2024-08-01 03:34:49,15.08840666,0.0001342,53.2159,162.3498,99.4958,260.6185,4.0244e-05,3.53e-06,0.0,0 STARLINK-4556,1 53578U 22101BD  24214.14918618  .00000353  00000-0  40244-4 0  9994,2 53578  53.2159 162.3498 0001342  99.4958 260.6185 15.08840666108058,6917.878,95.438,540.672,538.815,0.0
53578.0,STARLINK-4556,PAYLOAD,2024-08-01 13:07:08,15.08841825,0.0001394,53.2161,160.5667,100.5181,259.5968,3.8704e-05,3.28e-06,0.0,0 STARLINK-4556,1 53578U 22101BD  24214.54662540  .00000328  00000-0  38704-4 0  9998,2 53578  53.2161 160.5667 0001394 100.5181 259.5968 15.08841825108119,6917.875,95.437,540.704,538.775,0.0
53578.0,STARLINK-4556,PAYLOAD,2024-08-01 21:04:04,15.08839233,0.0001357,53.2165,159.0768,87.6596,272.4551,-3.1028e-05,-7.82e-06,0.0,0 STARLINK-4556,1 53578U 22101BD  24214.87782971 -.00000782  00000-0 -31028-4 0  9993,2 53578  53.2165 159.0768 0001357  87.6596 272.4551 15.08839233108169,6917.883,95.438,540.686,538.809,0.0
53578.0,STARLINK-4556,PAYLOAD,2024-08-02 03:25:35,15.08852024,0.0001253,53.2161,157.8873,82.735,277.3785,8.9411e-05,1.136e-05,0.0,0 STARLINK-4556,1 53578U 22101BD  24215.14277716  .00001136  00000-0  89411-4 0  9991,2 53578  53.2161 157.8873 0001253  82.7350 277.3785 15.08852024108208,6917.844,95.437,540.575,538.842,0.0
53578.0,STARLINK-4556,PAYLOAD,2024-08-02 12:57:55,15.08841802,0.0001376,53.2167,156.1034,81.2026,278.9122,-2.9752e-06,-3.35e-06,0.0,0 STARLINK-4556,1 53578U 22101BD  24215.54022644 -.00000335  00000-0 -29752-5 0  9998,2 53578  53.2167 156.1034 0001376  81.2026 278.9122 15.08841802108265,6917.875,95.437,540.692,538.788,0.0
53578.0,STARLINK-4556,PAYLOAD,2024-08-02 20:54:52,15.08824556,0.0001535,53.2179,154.6203,95.2684,264.8483,-7.5922e-05,-1.496e-05,0.0,0 STARLINK-4556,1 53578U 22101BD  24215.87144369 -.00001496  00000-0 -75922-4 0  9991,2 53578  53.2179 154.6203 0001535  95.2684 264.8483 15.08824556108318,6917.928,95.439,540.854,538.731,0.0
53578.0,STARLINK-4556,PAYLOAD,2024-08-03 04:51:48,15.08831822,0.0001575,53.218,153.1334,95.4511,264.6661,-1.2492e-05,-4.87e-06,0.0,0 STARLINK-4556,1 53578U 22101BD  24216.20263957 -.00000487  00000-0 -12492-4 0  9996,2 53578  53.2180 153.1334 0001575  95.4511 264.6661 15.08831822108369,6917.905,95.438,540.86,538.681,0.0
53578.0,STARLINK-4556,PAYLOAD,2024-08-03 12:48:43,15.08844456,0.0001264,53.2166,151.642,86.3622,273.7514,-0.00011652,-2.142e-05,0.0,0 STARLINK-4556,1 53578U 22101BD  24216.53383377 -.00002142  00000-0 -11652-3 0  9997,2 53578  53.2166 151.6420 0001264  86.3622 273.7514 15.08844456108410,6917.867,95.437,540.606,538.857,0.0
53578.0,STARLINK-4556,PAYLOAD,2024-08-04 04:42:33,15.08854408,0.0001402,53.217,148.6688,80.1739,279.9412,0.00013068,1.793e-05,0.0,0 STARLINK-4556,1 53578U 22101BD  24217.19622247  .00001793  00000-0  13068-3 0  9994,2 53578  53.2170 148.6688 0001402  80.1739 279.9412 15.08854408108516,6917.836,95.437,540.671,538.731,0.0
53578.0,STARLINK-4556,PAYLOAD,2024-08-04 12:39:29,15.08850469,0.0001392,53.2176,147.1823,79.5925,280.5224,-1.1313e-05,-4.68e-06,0.0,0 STARLINK-4556,1 53578U 22101BD  24217.52742765 -.00000468  00000-0 -11313-4 0  9991,2 53578  53.2176 147.1823 0001392  79.5925 280.5224 15.08850469108561,6917.848,95.437,540.676,538.75,0.0
53578.0,STARLINK-4556,PAYLOAD,2024-08-05 12:30:17,15.08835467,0.0001536,53.2165,142.7217,98.0867,262.0299,6.667e-06,-1.82e-06,0.0,0 STARLINK-4556,1 53578U 22101BD  24218.52103630 -.00000182  00000-0  66670-5 0  9993,2 53578  53.2165 142.7217 0001536  98.0867 262.0299 15.08835467108713,6917.894,95.438,540.822,538.697,0.0
